SL-3 R/B                
1 13819U 83010B   26171.22386465  .00011434  00000+0  20746-3 0  9991
2 13819  81.1007 236.2255 0015294  52.2916 307.9714 15.49310432373806
SL-3 R/B                
1 14208U 83075B   26171.44668627  .00007944  00000+0  19656-3 0  9991
2 14208  97.6107 180.0842 0019624 216.5803 143.4104 15.40541433345961
COSMOS 1536             
1 14699U 84013A   26171.04934553  .00004515  00000+0  17893-3 0  9990
2 14699  82.5443   5.9936 0012583 284.0426  75.9412 15.25076395288216
SL-14 R/B               
1 14820U 84027B   26171.44696137  .00000332  00000+0  35086-4 0  9996
2 14820  82.5412 148.6601 0017847 358.5562   1.5600 14.86061732262893
SL-8 R/B                
1 15483U 85006B   26171.16384985  .00000153  00000+0  59355-4 0  9990
2 15483  74.0460  72.5867 0018936 319.2357 191.2299 14.37836124168755
SL-12 R/B(2)            
1 15772U 85042D   26171.45852706 -.00000036  00000+0  52818-5 0  9993
2 15772  71.1073 230.6050 0036472 322.8141  47.9872 14.22006533129007
SL-14 R/B               
1 15945U 85069B   26171.40022816  .00000348  00000+0  36450-4 0  9998
2 15945  82.5273 288.3440 0018027 207.9505 152.0745 14.86517548188097
SL-16 R/B               
1 16182U 85097B   26171.44619478  .00000104  00000+0  76015-4 0  9994
2 16182  71.0034 284.2165 0005400 104.2894 322.2106 14.16610381101784
SL-14 R/B               
1 16496U 86006B   26171.41621076  .00000415  00000+0  41441-4 0  9997
2 16496  82.5261 163.0745 0074815 292.5669  66.7643 14.86948223164473
COSMOS 1743             
1 16719U 86034A   26171.40340493  .00043156  00000+0  40137-3 0  9995
2 16719  82.5280 325.3117 0004125 257.8396 102.2402 15.67204069196293
SL-14 R/B               
1 16792U 86046B   26171.45309977  .00000301  00000+0  31804-4 0  9993
2 16792  82.4818 343.0889 0021679 246.8824 113.0107 14.85672833141660
SL-14 R/B               
1 16882U 86055B   26171.05897988  .00000290  00000+0  30564-4 0  9992
2 16882  82.5202  30.4328 0018788 358.2644 158.1303 14.85724754134567
AJISAI (EGS)            
1 16908U 86061A   26171.43257355 -.00000100  00000+0 -18933-4 0  9996
2 16908  50.0070 137.4149 0011194 188.8064 260.9104 12.44516761480795
